{
  "type": "FeatureCollection",
  "features": [
    {
      "type": "Feature",
      "properties": {
        "id": 1,
        "name_en": "Uttarkashi",
        "name_hi": "उत्तरकाशी",
        "population": 365638,
        "lat": 30.7,
        "lng": 78.8
      },
      "geometry": {
        "type": "Polygon",
        "coordinates": [[
          [78.5, 30.3], [78.5, 31.2], [79.2, 31.2], [79.2, 30.3], [78.5, 30.3]
        ]]
      }
    },
    {
      "type": "Feature",
      "properties": {
        "id": 2,
        "name_en": "Chamoli",
        "name_hi": "चमोली",
        "population": 390235,
        "lat": 30.2,
        "lng": 79.6
      },
      "geometry": {
        "type": "Polygon",
        "coordinates": [[
          [79.2, 30.0], [79.2, 30.8], [80.2, 30.8], [80.2, 30.0], [79.2, 30.0]
        ]]
      }
    },
    {
      "type": "Feature",
      "properties": {
        "id": 3,
        "name_en": "Rudraprayag",
        "name_hi": "रुद्रप्रयाग",
        "population": 244374,
        "lat": 30.3,
        "lng": 79.2
      },
      "geometry": {
        "type": "Polygon",
        "coordinates": [[
          [78.9, 29.8], [78.9, 30.5], [79.5, 30.5], [79.5, 29.8], [78.9, 29.8]
        ]]
      }
    },
    {
      "type": "Feature",
      "properties": {
        "id": 4,
        "name_en": "Pauri Garhwal",
        "name_hi": "पौड़ी गढ़वाल",
        "population": 688748,
        "lat": 29.8,
        "lng": 78.8
      },
      "geometry": {
        "type": "Polygon",
        "coordinates": [[
          [78.2, 29.2], [78.2, 30.1], [79.2, 30.1], [79.2, 29.2], [78.2, 29.2]
        ]]
      }
    },
    {
      "type": "Feature",
      "properties": {
        "id": 5,
        "name_en": "Tehri Garhwal",
        "name_hi": "टेहरी गढ़वाल",
        "population": 647469,
        "lat": 30.4,
        "lng": 78.4
      },
      "geometry": {
        "type": "Polygon",
        "coordinates": [[
          [77.8, 29.8], [77.8, 30.8], [78.5, 30.8], [78.5, 29.8], [77.8, 29.8]
        ]]
      }
    },
    {
      "type": "Feature",
      "properties": {
        "id": 6,
        "name_en": "Dehradun",
        "name_hi": "देहरादून",
        "population": 1703168,
        "lat": 30.2,
        "lng": 77.9
      },
      "geometry": {
        "type": "Polygon",
        "coordinates": [[
          [77.3, 29.6], [77.3, 30.6], [78.3, 30.6], [78.3, 29.6], [77.3, 29.6]
        ]]
      }
    },
    {
      "type": "Feature",
      "properties": {
        "id": 7,
        "name_en": "Garhwal",
        "name_hi": "गढ़वाल",
        "population": 568276,
        "lat": 30.2,
        "lng": 79.0
      },
      "geometry": {
        "type": "Polygon",
        "coordinates": [[
          [78.7, 29.5], [78.7, 30.3], [79.5, 30.3], [79.5, 29.5], [78.7, 29.5]
        ]]
      }
    },
    {
      "type": "Feature",
      "properties": {
        "id": 8,
        "name_en": "Almora",
        "name_hi": "अल्मोड़ा",
        "population": 572606,
        "lat": 29.6,
        "lng": 79.6
      },
      "geometry": {
        "type": "Polygon",
        "coordinates": [[
          [79.3, 29.0], [79.3, 30.0], [80.2, 30.0], [80.2, 29.0], [79.3, 29.0]
        ]]
      }
    },
    {
      "type": "Feature",
      "properties": {
        "id": 9,
        "name_en": "Bageshwar",
        "name_hi": "बागेश्वर",
        "population": 267537,
        "lat": 29.9,
        "lng": 80.2
      },
      "geometry": {
        "type": "Polygon",
        "coordinates": [[
          [80.0, 29.4], [80.0, 30.2], [80.7, 30.2], [80.7, 29.4], [80.0, 29.4]
        ]]
      }
    },
    {
      "type": "Feature",
      "properties": {
        "id": 10,
        "name_en": "Nainital",
        "name_hi": "नैनीताल",
        "population": 902158,
        "lat": 29.4,
        "lng": 79.5
      },
      "geometry": {
        "type": "Polygon",
        "coordinates": [[
          [79.0, 28.7], [79.0, 29.6], [80.2, 29.6], [80.2, 28.7], [79.0, 28.7]
        ]]
      }
    },
    {
      "type": "Feature",
      "properties": {
        "id": 11,
        "name_en": "Pithoragarh",
        "name_hi": "पिथौरागढ़",
        "population": 483439,
        "lat": 29.6,
        "lng": 80.6
      },
      "geometry": {
        "type": "Polygon",
        "coordinates": [[
          [80.4, 29.0], [80.4, 29.8], [81.2, 29.8], [81.2, 29.0], [80.4, 29.0]
        ]]
      }
    },
    {
      "type": "Feature",
      "properties": {
        "id": 12,
        "name_en": "Champawat",
        "name_hi": "चम्पावत",
        "population": 261648,
        "lat": 29.3,
        "lng": 80.1
      },
      "geometry": {
        "type": "Polygon",
        "coordinates": [[
          [79.8, 28.9], [79.8, 29.5], [80.6, 29.5], [80.6, 28.9], [79.8, 28.9]
        ]]
      }
    },
    {
      "type": "Feature",
      "properties": {
        "id": 13,
        "name_en": "US Nagar",
        "name_hi": "यू.एस. नगर",
        "population": 1621013,
        "lat": 29.0,
        "lng": 78.8
      },
      "geometry": {
        "type": "Polygon",
        "coordinates": [[
          [78.4, 28.6], [78.4, 29.3], [79.4, 29.3], [79.4, 28.6], [78.4, 28.6]
        ]]
      }
    }
  ]
}
